PIESAT C                
1 56155U 23047C   26068.57334840  .00004309  00000+0  23896-3 0  9990
2 56155  97.5027 257.1489 0001962  78.3327 281.8125 15.14301617162722
PIESAT D                
1 56156U 23047D   26068.57334559  .00005148  00000+0  28476-3 0  9999
2 56156  97.5049 257.1462 0001784  95.5605 264.5831 15.14301886162720
